{
    "links": {
        "self": "http://www.neowsapp.com/rest/v1/neo/54005707?api_key=iIulBulltgU6a56xZRHN4H3l9WmuAYTsLGpBGhQ2"
    },
    "id": "54005707",
    "neo_reference_id": "54005707",
    "name": "(2020 DF4)",
    "designation": "2020 DF4",
    "nasa_jpl_url": "http://ssd.jpl.nasa.gov/sbdb.cgi?sstr=54005707",
    "absolute_magnitude_h": 26.228,
    "estimated_diameter": {
        "kilometers": {
            "estimated_diameter_min": 0.0150992361,
            "estimated_diameter_max": 0.0337629184
        },
        "meters": {
            "estimated_diameter_min": 15.0992361198,
            "estimated_diameter_max": 33.7629183721
        },
        "miles": {
            "estimated_diameter_min": 0.0093822274,
            "estimated_diameter_max": 0.0209792984
        },
        "feet": {
            "estimated_diameter_min": 49.5381778311,
            "estimated_diameter_max": 110.7707331119
        }
    },
    "is_potentially_hazardous_asteroid": false,
    "close_approach_data": [
        {
            "close_approach_date": "2020-02-28",
            "close_approach_date_full": "2020-Feb-28 04:26",
            "epoch_date_close_approach": 1582863960000,
            "relative_velocity": {
                "kilometers_per_second": "14.1097955009",
                "kilometers_per_hour": "50795.2638034027",
                "miles_per_hour": "31562.2015560643"
            },
            "miss_distance": {
                "astronomical": "0.0621359357",
                "lunar": "24.1708789873",
                "kilometers": "9295403.631176959",
                "miles": "5775895.9845576742"
            },
            "orbiting_body": "Earth"
        }
    ],
    "orbital_data": {
        "orbit_id": "2",
        "orbit_determination_date": "2020-03-06 06:41:03",
        "first_observation_date": "2020-02-27",
        "last_observation_date": "2020-03-04",
        "data_arc_in_days": 6,
        "observations_used": 37,
        "orbit_uncertainty": "8",
        "minimum_orbit_intersection": ".061919",
        "jupiter_tisserand_invariant": "4.551",
        "epoch_osculation": "2458907.5",
        "eccentricity": ".2643366766483358",
        "semi_major_axis": "1.43010515837481",
        "inclination": "25.58215530556013",
        "ascending_node_longitude": "158.4982678862602",
        "orbital_period": "624.6696221278569",
        "perihelion_distance": "1.052075913552371",
        "perihelion_argument": "357.5598161652065",
        "aphelion_distance": "1.808134403197249",
        "perihelion_time": "2458905.373369837628",
        "mean_anomaly": "1.225586824353722",
        "mean_motion": ".5763046372796331",
        "equinox": "J2000",
        "orbit_class": {
            "orbit_class_type": "AMO",
            "orbit_class_description": "Near-Earth asteroid orbits similar to that of 1221 Amor",
            "orbit_class_range": "1.017 AU < q (perihelion) < 1.3 AU"
        }
    },
    "is_sentry_object": false
}